{
  "type": "FeatureCollection",
  "features": [
    {
      "type": "Feature",
      "properties": {
        "norad_id": 38833,
        "name": "GPS BIIF-3  (PRN 24)",
        "group": "gps-ops",
        "lat": -53.13244145170315,
        "lon": 70.68667979073956,
        "alt_km": 20582.701757440285,
        "timestamp": "2025-12-22T16:55:17.721638+00:00",
        "meta_object_name": "GPS BIIF-3  (PRN 24)",
        "meta_object_id": "2012-053A",
        "meta_epoch": "2025-12-21T19:48:37.678176",
        "meta_mean_motion": 2.0056507,
        "meta_eccentricity": 0.01760152,
        "meta_inclination": 53.5594,
        "meta_ra_of_asc_node": 150.8666,
        "meta_arg_of_pericenter": 64.1278,
        "meta_mean_anomaly": 297.6511,
        "meta_ephemeris_type": 0,
        "meta_classification_type": "U",
        "meta_norad_cat_id": 38833,
        "meta_element_set_no": 999,
        "meta_rev_at_epoch": 9588,
        "meta_bstar": 0,
        "meta_mean_motion_dot": 6.3e-07,
        "meta_mean_motion_ddot": 0,
        "tle_line1": "1 38833U 12053A   25355.82543609  .00000063  00000+0  00000+0 0  9990",
        "tle_line2": "2 38833  53.5594 150.8666 0176015  64.1278 297.6511  2.00565070 95884"
      },
      "geometry": {
        "type": "Point",
        "coordinates": [
          70.68667979073956,
          -53.13244145170315
        ]
      }
    },
    {
      "type": "Feature",
      "properties": {
        "norad_id": 39166,
        "name": "GPS BIIF-4  (PRN 27)",
        "group": "gps-ops",
        "lat": 10.989972754834012,
        "lon": -75.93021075908098,
        "alt_km": 19878.9253609898,
        "timestamp": "2025-12-22T16:55:17.721650+00:00",
        "meta_object_name": "GPS BIIF-4  (PRN 27)",
        "meta_object_id": "2013-023A",
        "meta_epoch": "2025-12-21T04:35:02.241888",
        "meta_mean_motion": 2.00564674,
        "meta_eccentricity": 0.0138431,
        "meta_inclination": 54.6447,
        "meta_ra_of_asc_node": 276.2247,
        "meta_arg_of_pericenter": 48.7169,
        "meta_mean_anomaly": 312.5052,
        "meta_ephemeris_type": 0,
        "meta_classification_type": "U",
        "meta_norad_cat_id": 39166,
        "meta_element_set_no": 999,
        "meta_rev_at_epoch": 9231,
        "meta_bstar": 0,
        "meta_mean_motion_dot": -1.7e-07,
        "meta_mean_motion_ddot": 0,
        "tle_line1": "1 39166U 13023A   25355.19099817 -.00000017  00000+0  00000+0 0  9995",
        "tle_line2": "2 39166  54.6447 276.2247 0138431  48.7169 312.5052  2.00564674 92319"
      },
      "geometry": {
        "type": "Point",
        "coordinates": [
          -75.93021075908098,
          10.989972754834012
        ]
      }
    },
    {
      "type": "Feature",
      "properties": {
        "norad_id": 39533,
        "name": "GPS BIIF-5  (PRN 30)",
        "group": "gps-ops",
        "lat": 13.829023572809675,
        "lon": 166.9931744937324,
        "alt_km": 20366.50320341133,
        "timestamp": "2025-12-22T16:55:17.721661+00:00",
        "meta_object_name": "GPS BIIF-5  (PRN 30)",
        "meta_object_id": "2014-008A",
        "meta_epoch": "2025-12-20T16:28:24.690432",
        "meta_mean_motion": 2.00548724,
        "meta_eccentricity": 0.00795742,
        "meta_inclination": 53.6246,
        "meta_ra_of_asc_node": 156.6308,
        "meta_arg_of_pericenter": 226.1122,
        "meta_mean_anomaly": 133.2164,
        "meta_ephemeris_type": 0,
        "meta_classification_type": "U",
        "meta_norad_cat_id": 39533,
        "meta_element_set_no": 999,
        "meta_rev_at_epoch": 8610,
        "meta_bstar": 0,
        "meta_mean_motion_dot": 6.5e-07,
        "meta_mean_motion_ddot": 0,
        "tle_line1": "1 39533U 14008A   25354.68639688  .00000065  00000+0  00000+0 0  9998",
        "tle_line2": "2 39533  53.6246 156.6308 0079574 226.1122 133.2164  2.00548724 86105"
      },
      "geometry": {
        "type": "Point",
        "coordinates": [
          166.9931744937324,
          13.829023572809675
        ]
      }
    },
    {
      "type": "Feature",
      "properties": {
        "norad_id": 39741,
        "name": "GPS BIIF-6  (PRN 06)",
        "group": "gps-ops",
        "lat": 6.363050846875253,
        "lon": 154.15304184019612,
        "alt_km": 20269.494018034267,
        "timestamp": "2025-12-22T16:55:17.721672+00:00",
        "meta_object_name": "GPS BIIF-6  (PRN 06)",
        "meta_object_id": "2014-026A",
        "meta_epoch": "2025-12-21T23:12:34.799616",
        "meta_mean_motion": 2.00560759,
        "meta_eccentricity": 0.00394103,
        "meta_inclination": 56.58,
        "meta_ra_of_asc_node": 338.4177,
        "meta_arg_of_pericenter": 319.2097,
        "meta_mean_anomaly": 40.4995,
        "meta_ephemeris_type": 0,
        "meta_classification_type": "U",
        "meta_norad_cat_id": 39741,
        "meta_element_set_no": 999,
        "meta_rev_at_epoch": 8498,
        "meta_bstar": 0,
        "meta_mean_motion_dot": -6.8e-07,
        "meta_mean_motion_ddot": 0,
        "tle_line1": "1 39741U 14026A   25355.96706944 -.00000068  00000+0  00000+0 0  9995",
        "tle_line2": "2 39741  56.5800 338.4177 0039410 319.2097  40.4995  2.00560759 84985"
      },
      "geometry": {
        "type": "Point",
        "coordinates": [
          154.15304184019612,
          6.363050846875253
        ]
      }
    },
    {
      "type": "Feature",
      "properties": {
        "norad_id": 40105,
        "name": "GPS BIIF-7  (PRN 09)",
        "group": "gps-ops",
        "lat": 50.36299396672391,
        "lon": -141.34315609108012,
        "alt_km": 20090.524297583772,
        "timestamp": "2025-12-22T16:55:17.721684+00:00",
        "meta_object_name": "GPS BIIF-7  (PRN 09)",
        "meta_object_id": "2014-045A",
        "meta_epoch": "2025-12-21T13:19:50.037600",
        "meta_mean_motion": 2.00573131,
        "meta_eccentricity": 0.00324633,
        "meta_inclination": 55.2342,
        "meta_ra_of_asc_node": 95.5472,
        "meta_arg_of_pericenter": 120.1198,
        "meta_mean_anomaly": 240.2018,
        "meta_ephemeris_type": 0,
        "meta_classification_type": "U",
        "meta_norad_cat_id": 40105,
        "meta_element_set_no": 999,
        "meta_rev_at_epoch": 8251,
        "meta_bstar": 0,
        "meta_mean_motion_dot": -7e-08,
        "meta_mean_motion_ddot": 0,
        "tle_line1": "1 40105U 14045A   25355.55544025 -.00000007  00000+0  00000+0 0  9990",
        "tle_line2": "2 40105  55.2342  95.5472 0032463 120.1198 240.2018  2.00573131 82510"
      },
      "geometry": {
        "type": "Point",
        "coordinates": [
          -141.34315609108012,
          50.36299396672391
        ]
      }
    },
    {
      "type": "Feature",
      "properties": {
        "norad_id": 40294,
        "name": "GPS BIIF-8  (PRN 03)",
        "group": "gps-ops",
        "lat": -15.995276178957663,
        "lon": -131.4342552487166,
        "alt_km": 20288.221875046205,
        "timestamp": "2025-12-22T16:55:17.721695+00:00",
        "meta_object_name": "GPS BIIF-8  (PRN 03)",
        "meta_object_id": "2014-068A",
        "meta_epoch": "2025-12-21T10:24:33.832224",
        "meta_mean_motion": 2.00565456,
        "meta_eccentricity": 0.00608151,
        "meta_inclination": 56.8641,
        "meta_ra_of_asc_node": 37.8098,
        "meta_arg_of_pericenter": 69.0115,
        "meta_mean_anomaly": 291.7086,
        "meta_ephemeris_type": 0,
        "meta_classification_type": "U",
        "meta_norad_cat_id": 40294,
        "meta_element_set_no": 999,
        "meta_rev_at_epoch": 8164,
        "meta_bstar": 0,
        "meta_mean_motion_dot": -5.2e-07,
        "meta_mean_motion_ddot": 0,
        "tle_line1": "1 40294U 14068A   25355.43372491 -.00000052  00000+0  00000+0 0  9997",
        "tle_line2": "2 40294  56.8641  37.8098 0060815  69.0115 291.7086  2.00565456 81643"
      },
      "geometry": {
        "type": "Point",
        "coordinates": [
          -131.4342552487166,
          -15.995276178957663
        ]
      }
    },
    {
      "type": "Feature",
      "properties": {
        "norad_id": 40534,
        "name": "GPS BIIF-9  (PRN 26)",
        "group": "gps-ops",
        "lat": 50.27348475172639,
        "lon": -32.80305003047905,
        "alt_km": 20063.61238374729,
        "timestamp": "2025-12-22T16:55:17.721707+00:00",
        "meta_object_name": "GPS BIIF-9  (PRN 26)",
        "meta_object_id": "2015-013A",
        "meta_epoch": "2025-12-21T01:33:43.050240",
        "meta_mean_motion": 2.00562033,
        "meta_eccentricity": 0.01073869,
        "meta_inclination": 53.1966,
        "meta_ra_of_asc_node": 211.5454,
        "meta_arg_of_pericenter": 38.6862,
        "meta_mean_anomaly": 322.1684,
        "meta_ephemeris_type": 0,
        "meta_classification_type": "U",
        "meta_norad_cat_id": 40534,
        "meta_element_set_no": 999,
        "meta_rev_at_epoch": 7825,
        "meta_bstar": 0,
        "meta_mean_motion_dot": 7.9e-07,
        "meta_mean_motion_ddot": 0,
        "tle_line1": "1 40534U 15013A   25355.06508160  .00000079  00000+0  00000+0 0  9996",
        "tle_line2": "2 40534  53.1966 211.5454 0107386  38.6862 322.1684  2.00562033 78257"
      },
      "geometry": {
        "type": "Point",
        "coordinates": [
          -32.80305003047905,
          50.27348475172639
        ]
      }
    }
  ]
}